{
    "links": {
        "self": "http://www.neowsapp.com/rest/v1/neo/3779440?api_key=iIulBulltgU6a56xZRHN4H3l9WmuAYTsLGpBGhQ2"
    },
    "id": "3779440",
    "neo_reference_id": "3779440",
    "name": "(2017 OX67)",
    "designation": "2017 OX67",
    "nasa_jpl_url": "http://ssd.jpl.nasa.gov/sbdb.cgi?sstr=3779440",
    "absolute_magnitude_h": 23.5,
    "estimated_diameter": {
        "kilometers": {
            "estimated_diameter_min": 0.0530340723,
            "estimated_diameter_max": 0.1185877909
        },
        "meters": {
            "estimated_diameter_min": 53.0340723319,
            "estimated_diameter_max": 118.5877908577
        },
        "miles": {
            "estimated_diameter_min": 0.0329538346,
            "estimated_diameter_max": 0.0736870142
        },
        "feet": {
            "estimated_diameter_min": 173.9963058693,
            "estimated_diameter_max": 389.0675677576
        }
    },
    "is_potentially_hazardous_asteroid": false,
    "close_approach_data": [
        {
            "close_approach_date": "2017-06-30",
            "close_approach_date_full": "2017-Jun-30 17:37",
            "epoch_date_close_approach": 1498844220000,
            "relative_velocity": {
                "kilometers_per_second": "8.8339901404",
                "kilometers_per_hour": "31802.3645053006",
                "miles_per_hour": "19760.7525449741"
            },
            "miss_distance": {
                "astronomical": "0.0288981753",
                "lunar": "11.2413901917",
                "kilometers": "4323105.471766611",
                "miles": "2686253.1769407918"
            },
            "orbiting_body": "Earth"
        },
        {
            "close_approach_date": "2079-07-20",
            "close_approach_date_full": "2079-Jul-20 00:25",
            "epoch_date_close_approach": 3457038300000,
            "relative_velocity": {
                "kilometers_per_second": "11.0933498156",
                "kilometers_per_hour": "39936.0593362147",
                "miles_per_hour": "24814.7142025496"
            },
            "miss_distance": {
                "astronomical": "0.0968392007",
                "lunar": "37.6704490723",
                "kilometers": "14486938.157222509",
                "miles": "9001765.9534642642"
            },
            "orbiting_body": "Earth"
        },
        {
            "close_approach_date": "2083-04-22",
            "close_approach_date_full": "2083-Apr-22 01:23",
            "epoch_date_close_approach": 3575582580000,
            "relative_velocity": {
                "kilometers_per_second": "18.8658801756",
                "kilometers_per_hour": "67917.1686323357",
                "miles_per_hour": "42201.0873649088"
            },
            "miss_distance": {
                "astronomical": "0.3528879245",
                "lunar": "137.2734026305",
                "kilometers": "52791281.853920815",
                "miles": "32802981.449564647"
            },
            "orbiting_body": "Earth"
        }
    ],
    "orbital_data": {
        "orbit_id": "3",
        "orbit_determination_date": "2017-08-18 06:22:16",
        "first_observation_date": "2017-07-25",
        "last_observation_date": "2017-08-17",
        "data_arc_in_days": 23,
        "observations_used": 20,
        "orbit_uncertainty": "6",
        "minimum_orbit_intersection": ".0241021",
        "jupiter_tisserand_invariant": "3.213",
        "epoch_osculation": "2459000.5",
        "eccentricity": ".5979834614429458",
        "semi_major_axis": "2.465571446935756",
        "inclination": "1.95976632531408",
        "ascending_node_longitude": "328.34155472179",
        "orbital_period": "1414.08271858787",
        "perihelion_distance": ".9912004986622203",
        "perihelion_argument": "294.4926484125663",
        "aphelion_distance": "3.939942395209291",
        "perihelion_time": "2459336.679603201560",
        "mean_anomaly": "274.4147258419089",
        "mean_motion": ".2545819952877317",
        "equinox": "J2000",
        "orbit_class": {
            "orbit_class_type": "APO",
            "orbit_class_description": "Near-Earth asteroid orbits which cross the Earth’s orbit similar to that of 1862 Apollo",
            "orbit_class_range": "a (semi-major axis) > 1.0 AU; q (perihelion) < 1.017 AU"
        }
    },
    "is_sentry_object": false
}